start=new Date('2023-01-02T00:00:00.000Z').valueOf();
sats=[{"EPHEMERIS_TYPE":"0","PERIAPSIS":"538.315","PERIOD":"95.438","SEMIMAJOR_AXIS":"6917.889","CLASSIFICATION_TYPE":"U","NORAD_CAT_ID":"53244","CENTER_NAME":"EARTH","MEAN_ELEMENT_THEORY":"SGP4","MEAN_MOTION_DOT":"-0.00003377","ELEMENT_SET_NO":"999","REF_FRAME":"TEME","RCS_SIZE":"LARGE","ARG_OF_PERICENTER":"38.1741","MEAN_MOTION":"15.08837216","APOAPSIS":"541.193","FILE":"3728994","COUNTRY_CODE":"US","MEAN_ANOMALY":"321.9398","GP_ID":"221994230","OBJECT_TYPE":"PAYLOAD","ECCENTRICITY":"0.00020800","OBJECT_ID":"2022-086C","REV_AT_EPOCH":"2522","MEAN_MOTION_DDOT":"0.0000000000000","EPOCH":"2023-01-02T01:09:29.031552","TLE_LINE1":"1 53244U 22086C   23002.04825268 -.00003377  00000-0 -19418-3 0  9996","SITE":"AFETR","DECAY_DATE":null,"BSTAR":"-0.00019418000000","INCLINATION":"53.2177","OBJECT_NAME":"STARLINK-4125","RA_OF_ASC_NODE":"23.4177","TIME_SYSTEM":"UTC","TLE_LINE2":"2 53244  53.2177  23.4177 0002080  38.1741 321.9398 15.08837216 25220","LAUNCH_DATE":"2022-07-24"},{"PERIOD":"95.439","PERIAPSIS":"538.031","EPHEMERIS_TYPE":"0","SEMIMAJOR_AXIS":"6917.962","NORAD_CAT_ID":"53245","CENTER_NAME":"EARTH","CLASSIFICATION_TYPE":"U","ELEMENT_SET_NO":"999","MEAN_ELEMENT_THEORY":"SGP4","MEAN_MOTION_DOT":"0.00003654","REF_FRAME":"TEME","RCS_SIZE":"LARGE","APOAPSIS":"541.623","FILE":"3728994","ARG_OF_PERICENTER":"31.0240","MEAN_MOTION":"15.08813423","MEAN_ANOMALY":"329.0906","GP_ID":"221994158","OBJECT_TYPE":"PAYLOAD","COUNTRY_CODE":"US","REV_AT_EPOCH":"2522","ECCENTRICITY":"0.00025960","OBJECT_ID":"2022-086D","MEAN_MOTION_DDOT":"0.0000000000000","EPOCH":"2023-01-02T01:20:04.196832","DECAY_DATE":null,"TLE_LINE1":"1 53245U 22086D   23002.05560413  .00003654  00000-0  24772-3 0  9991","SITE":"AFETR","BSTAR":"0.00024772000000","OBJECT_NAME":"STARLINK-4124","RA_OF_ASC_NODE":"23.3815","INCLINATION":"53.2183","TIME_SYSTEM":"UTC","TLE_LINE2":"2 53245  53.2183  23.3815 0002596  31.0240 329.0906 15.08813423 25222","LAUNCH_DATE":"2022-07-24"},{"APOAPSIS":"541.700","FILE":"3728994","ARG_OF_PERICENTER":"30.4526","MEAN_MOTION":"15.08821734","REF_FRAME":"TEME","RCS_SIZE":"LARGE","NORAD_CAT_ID":"53246","CENTER_NAME":"EARTH","CLASSIFICATION_TYPE":"U","ELEMENT_SET_NO":"999","MEAN_ELEMENT_THEORY":"SGP4","MEAN_MOTION_DOT":"0.00003127","PERIOD":"95.439","EPHEMERIS_TYPE":"0","PERIAPSIS":"537.903","SEMIMAJOR_AXIS":"6917.936","TLE_LINE2":"2 53246  53.2184  23.6999 0002744  30.4526 329.6625 15.08821734 25212","LAUNCH_DATE":"2022-07-24","OBJECT_NAME":"STARLINK-4131","RA_OF_ASC_NODE":"23.6999","INCLINATION":"53.2184","TIME_SYSTEM":"UTC","MEAN_MOTION_DDOT":"0.0000000000000","EPOCH":"2023-01-01T23:39:23.219424","TLE_LINE1":"1 53246U 22086E   23001.98568541  .00003127  00000-0  21459-3 0  9997","DECAY_DATE":null,"SITE":"AFETR","BSTAR":"0.00021459000000","MEAN_ANOMALY":"329.6625","OBJECT_TYPE":"PAYLOAD","GP_ID":"221994152","COUNTRY_CODE":"US","REV_AT_EPOCH":"2521","ECCENTRICITY":"0.00027440","OBJECT_ID":"2022-086E"},{"MEAN_MOTION":"15.08835808","ARG_OF_PERICENTER":"28.2321","FILE":"3728759","APOAPSIS":"541.567","RCS_SIZE":"LARGE","REF_FRAME":"TEME","MEAN_MOTION_DOT":"-0.00000900","MEAN_ELEMENT_THEORY":"SGP4","ELEMENT_SET_NO":"999","CLASSIFICATION_TYPE":"U","NORAD_CAT_ID":"53247","CENTER_NAME":"EARTH","SEMIMAJOR_AXIS":"6917.893","PERIAPSIS":"537.950","EPHEMERIS_TYPE":"0","PERIOD":"95.438","LAUNCH_DATE":"2022-07-24","TLE_LINE2":"2 53247  53.2174  21.0822 0002614  28.2321 331.8812 15.08835808 25707","TIME_SYSTEM":"UTC","INCLINATION":"53.2174","RA_OF_ASC_NODE":"21.0822","OBJECT_NAME":"STARLINK-4061","TLE_LINE1":"1 53247U 22086F   23001.45901564 -.00000900  00000-0 -38419-4 0  9999","DECAY_DATE":null,"SITE":"AFETR","BSTAR":"-0.00003841900000","EPOCH":"2023-01-01T11:00:58.951296","MEAN_MOTION_DDOT":"0.0000000000000","OBJECT_ID":"2022-086F","ECCENTRICITY":"0.00026140","REV_AT_EPOCH":"2570","COUNTRY_CODE":"US","OBJECT_TYPE":"PAYLOAD","GP_ID":"221935290","MEAN_ANOMALY":"331.8812"},{"APOAPSIS":"540.954","FILE":"3728759","ARG_OF_PERICENTER":"40.2752","MEAN_MOTION":"15.08839236","REF_FRAME":"TEME","RCS_SIZE":"LARGE","NORAD_CAT_ID":"53248","CENTER_NAME":"EARTH","CLASSIFICATION_TYPE":"U","ELEMENT_SET_NO":"999","MEAN_ELEMENT_THEORY":"SGP4","MEAN_MOTION_DOT":"-0.00002014","PERIOD":"95.438","PERIAPSIS":"538.542","EPHEMERIS_TYPE":"0","SEMIMAJOR_AXIS":"6917.883","TLE_LINE2":"2 53248  53.2166  21.0909 0001743  40.2752 319.8369 15.08839236 25701","LAUNCH_DATE":"2022-07-24","OBJECT_NAME":"STARLINK-4135","RA_OF_ASC_NODE":"21.0909","INCLINATION":"53.2166","TIME_SYSTEM":"UTC","MEAN_MOTION_DDOT":"0.0000000000000","EPOCH":"2023-01-01T10:55:41.310336","TLE_LINE1":"1 53248U 22086G   23001.45533924 -.00002014  00000-0 -10848-3 0  9994","DECAY_DATE":null,"BSTAR":"-0.00010848000000","SITE":"AFETR","MEAN_ANOMALY":"319.8369","GP_ID":"221935502","OBJECT_TYPE":"PAYLOAD","COUNTRY_CODE":"US","REV_AT_EPOCH":"2570","ECCENTRICITY":"0.00017430","OBJECT_ID":"2022-086G"},{"MEAN_MOTION_DDOT":"0.0000000000000","EPOCH":"2023-01-01T17:35:03.410304","TLE_LINE1":"1 53249U 22086H   23001.73267836 -.00008504  00000-0 -51714-3 0  9999","DECAY_DATE":null,"SITE":"AFETR","BSTAR":"-0.00051714000000","COUNTRY_CODE":"US","MEAN_ANOMALY":"335.0472","OBJECT_TYPE":"PAYLOAD","GP_ID":"221994424","ECCENTRICITY":"0.00026210","OBJECT_ID":"2022-086H","REV_AT_EPOCH":"2531","TLE_LINE2":"2 53249  53.2168  14.8533 0002621  25.0647 335.0472 15.08814861 25316","LAUNCH_DATE":"2022-07-24","INCLINATION":"53.2168","OBJECT_NAME":"STARLINK-4128","RA_OF_ASC_NODE":"14.8533","TIME_SYSTEM":"UTC","CLASSIFICATION_TYPE":"U","NORAD_CAT_ID":"53249","CENTER_NAME":"EARTH","MEAN_ELEMENT_THEORY":"SGP4","MEAN_MOTION_DOT":"-0.00008504","ELEMENT_SET_NO":"999","PERIAPSIS":"538.009","EPHEMERIS_TYPE":"0","PERIOD":"95.439","SEMIMAJOR_AXIS":"6917.957","ARG_OF_PERICENTER":"25.0647","MEAN_MOTION":"15.08814861","APOAPSIS":"541.635","FILE":"3728995","REF_FRAME":"TEME","RCS_SIZE":"LARGE"},{"ECCENTRICITY":"0.00013860","OBJECT_ID":"2022-086J","REV_AT_EPOCH":"2536","COUNTRY_CODE":"US","MEAN_ANOMALY":"304.3844","GP_ID":"221994425","OBJECT_TYPE":"PAYLOAD","TLE_LINE1":"1 53250U 22086J   23002.06756678 -.00000746  00000-0 -28814-4 0  9991","SITE":"AFETR","DECAY_DATE":null,"BSTAR":"-0.00002881400000","MEAN_MOTION_DDOT":"0.0000000000000","EPOCH":"2023-01-02T01:37:17.769792","TIME_SYSTEM":"UTC","INCLINATION":"53.2133","OBJECT_NAME":"STARLINK-4059","RA_OF_ASC_NODE":"13.3489","LAUNCH_DATE":"2022-07-24","TLE_LINE2":"2 53250  53.2133  13.3489 0001386  55.7279 304.3844 15.08825300 25369","SEMIMAJOR_AXIS":"6917.925","EPHEMERIS_TYPE":"0","PERIAPSIS":"538.831","PERIOD":"95.438","MEAN_ELEMENT_THEORY":"SGP4","MEAN_MOTION_DOT":"-0.00000746","ELEMENT_SET_NO":"999","CLASSIFICATION_TYPE":"U","NORAD_CAT_ID":"53250","CENTER_NAME":"EARTH","RCS_SIZE":"LARGE","REF_FRAME":"TEME","ARG_OF_PERICENTER":"55.7279","MEAN_MOTION":"15.08825300","APOAPSIS":"540.749","FILE":"3728995"},{"FILE":"3728952","APOAPSIS":"541.234","MEAN_MOTION":"15.08821941","ARG_OF_PERICENTER":"44.9744","REF_FRAME":"TEME","RCS_SIZE":"LARGE","NORAD_CAT_ID":"53251","CENTER_NAME":"EARTH","CLASSIFICATION_TYPE":"U","ELEMENT_SET_NO":"999","MEAN_MOTION_DOT":"0.00000573","MEAN_ELEMENT_THEORY":"SGP4","PERIOD":"95.439","PERIAPSIS":"538.367","EPHEMERIS_TYPE":"0","SEMIMAJOR_AXIS":"6917.936","TLE_LINE2":"2 53251  53.2170  14.8795 0002072  44.9744 315.1416 15.08821941 25493","LAUNCH_DATE":"2022-07-24","RA_OF_ASC_NODE":"14.8795","OBJECT_NAME":"STARLINK-4129","INCLINATION":"53.2170","TIME_SYSTEM":"UTC","EPOCH":"2023-01-01T17:24:27.247104","MEAN_MOTION_DDOT":"0.0000000000000","TLE_LINE1":"1 53251U 22086K   23001.72531536  .00000573  00000-0  54113-4 0  9995","DECAY_DATE":null,"SITE":"AFETR","BSTAR":"0.00005411300000","GP_ID":"221992612","OBJECT_TYPE":"PAYLOAD","MEAN_ANOMALY":"315.1416","COUNTRY_CODE":"US","REV_AT_EPOCH":"2549","OBJECT_ID":"2022-086K","ECCENTRICITY":"0.00020720"},{"MEAN_MOTION_DDOT":"0.0000000000000","EPOCH":"2023-01-01T17:36:25.841952","TLE_LINE1":"1 53252U 22086L   23001.73363243 -.00004631  00000-0 -27302-3 0  9995","DECAY_DATE":null,"BSTAR":"-0.00027302000000","SITE":"AFETR","COUNTRY_CODE":"US","MEAN_ANOMALY":"334.1986","GP_ID":"221991936","OBJECT_TYPE":"PAYLOAD","ECCENTRICITY":"0.00033200","OBJECT_ID":"2022-086L","REV_AT_EPOCH":"2551","TLE_LINE2":"2 53252  53.2180  14.8463 0003320  25.9171 334.1986 15.08829952 25513","LAUNCH_DATE":"2022-07-24","INCLINATION":"53.2180","OBJECT_NAME":"STARLINK-4132","RA_OF_ASC_NODE":"14.8463","TIME_SYSTEM":"UTC","CLASSIFICATION_TYPE":"U","NORAD_CAT_ID":"53252","CENTER_NAME":"EARTH","MEAN_ELEMENT_THEORY":"SGP4","MEAN_MOTION_DOT":"-0.00004631","ELEMENT_SET_NO":"999","PERIAPSIS":"537.479","EPHEMERIS_TYPE":"0","PERIOD":"95.438","SEMIMAJOR_AXIS":"6917.911","ARG_OF_PERICENTER":"25.9171","MEAN_MOTION":"15.08829952","APOAPSIS":"542.073","FILE":"3728952","REF_FRAME":"TEME","RCS_SIZE":"LARGE"},{"LAUNCH_DATE":"2022-07-24","TLE_LINE2":"2 53253  53.2179  15.7811 0002807  23.3487 336.7632 15.08830592 25462","TIME_SYSTEM":"UTC","INCLINATION":"53.2179","RA_OF_ASC_NODE":"15.7811","OBJECT_NAME":"STARLINK-4133","TLE_LINE1":"1 53253U 22086M   23001.52293068 -.00000058  00000-0  14459-4 0  9998","SITE":"AFETR","DECAY_DATE":null,"BSTAR":"0.00001445900000","EPOCH":"2023-01-01T12:33:01.210752","MEAN_MOTION_DDOT":"0.0000000000000","OBJECT_ID":"2022-086M","ECCENTRICITY":"0.00028070","REV_AT_EPOCH":"2546","COUNTRY_CODE":"US","OBJECT_TYPE":"PAYLOAD","GP_ID":"221934841","MEAN_ANOMALY":"336.7632","MEAN_MOTION":"15.08830592","ARG_OF_PERICENTER":"23.3487","FILE":"3728759","APOAPSIS":"541.716","RCS_SIZE":"MEDIUM","REF_FRAME":"TEME","MEAN_MOTION_DOT":"-0.00000058","MEAN_ELEMENT_THEORY":"SGP4","ELEMENT_SET_NO":"999","CLASSIFICATION_TYPE":"U","NORAD_CAT_ID":"53253","CENTER_NAME":"EARTH","SEMIMAJOR_AXIS":"6917.909","PERIAPSIS":"537.832","EPHEMERIS_TYPE":"0","PERIOD":"95.438"}];
